CCSDS_OMM_VERS = 2.0
CREATION_DATE  = 
ORIGINATOR     = 

OBJECT_NAME    = STARLINK-36830
OBJECT_ID      = 2026-044K
CENTER_NAME    = EARTH
REF_FRAME      = TEME
TIME_SYSTEM    = UTC
MEAN_ELEMENT_THEORY = SGP/SGP4

EPOCH          = 2026-03-15T14:00:01.999872
MEAN_MOTION    = 15.98640004
ECCENTRICITY   = .00016592
INCLINATION    = 97.2812
RA_OF_ASC_NODE = 34.9134
ARG_OF_PERICENTER = 111.8704
MEAN_ANOMALY   = 161.5120

EPHEMERIS_TYPE = 0
CLASSIFICATION_TYPE = U
NORAD_CAT_ID   = 68110
ELEMENT_SET_NO = 999
REV_AT_EPOCH   = 234
BSTAR          = -.40564391E-2
MEAN_MOTION_DOT = -.1886111E-1
MEAN_MOTION_DDOT = .10491507E-2

CCSDS_OMM_VERS = 2.0
CREATION_DATE  = 
ORIGINATOR     = 

OBJECT_NAME    = STARLINK-36791
OBJECT_ID      = 2026-044L
CENTER_NAME    = EARTH
REF_FRAME      = TEME
TIME_SYSTEM    = UTC
MEAN_ELEMENT_THEORY = SGP/SGP4

EPOCH          = 2026-03-15T14:00:01.999872
MEAN_MOTION    = 15.98903263
ECCENTRICITY   = .0001568
INCLINATION    = 97.2812
RA_OF_ASC_NODE = 34.9157
ARG_OF_PERICENTER = 109.3767
MEAN_ANOMALY   = 168.4662

EPHEMERIS_TYPE = 0
CLASSIFICATION_TYPE = U
NORAD_CAT_ID   = 68111
ELEMENT_SET_NO = 999
REV_AT_EPOCH   = 229
BSTAR          = -.39827267E-2
MEAN_MOTION_DOT = -.1879203E-1
MEAN_MOTION_DDOT = .10450512E-2

CCSDS_OMM_VERS = 2.0
CREATION_DATE  = 
ORIGINATOR     = 

OBJECT_NAME    = STARLINK-36893
OBJECT_ID      = 2026-044M
CENTER_NAME    = EARTH
REF_FRAME      = TEME
TIME_SYSTEM    = UTC
MEAN_ELEMENT_THEORY = SGP/SGP4

EPOCH          = 2026-03-15T14:00:01.999872
MEAN_MOTION    = 15.99031492
ECCENTRICITY   = .00015533
INCLINATION    = 97.2809
RA_OF_ASC_NODE = 34.9164
ARG_OF_PERICENTER = 109.2680
MEAN_ANOMALY   = 170.7299

EPHEMERIS_TYPE = 0
CLASSIFICATION_TYPE = U
NORAD_CAT_ID   = 68112
ELEMENT_SET_NO = 999
REV_AT_EPOCH   = 234
BSTAR          = -.39438194E-2
MEAN_MOTION_DOT = -.1874249E-1
MEAN_MOTION_DDOT = .10413881E-2

CCSDS_OMM_VERS = 2.0
CREATION_DATE  = 
ORIGINATOR     = 

OBJECT_NAME    = STARLINK-36937
OBJECT_ID      = 2026-044N
CENTER_NAME    = EARTH
REF_FRAME      = TEME
TIME_SYSTEM    = UTC
MEAN_ELEMENT_THEORY = SGP/SGP4

EPOCH          = 2026-03-15T14:00:01.999872
MEAN_MOTION    = 15.99292076
ECCENTRICITY   = .00015456
INCLINATION    = 97.2810
RA_OF_ASC_NODE = 34.9184
ARG_OF_PERICENTER = 115.6517
MEAN_ANOMALY   = 168.8561

EPHEMERIS_TYPE = 0
CLASSIFICATION_TYPE = U
NORAD_CAT_ID   = 68113
ELEMENT_SET_NO = 999
REV_AT_EPOCH   = 229
BSTAR          = -.3869159E-2
MEAN_MOTION_DOT = -.186584E-1
MEAN_MOTION_DDOT = .10356837E-2

CCSDS_OMM_VERS = 2.0
CREATION_DATE  = 
ORIGINATOR     = 

OBJECT_NAME    = STARLINK-36229
OBJECT_ID      = 2026-044P
CENTER_NAME    = EARTH
REF_FRAME      = TEME
TIME_SYSTEM    = UTC
MEAN_ELEMENT_THEORY = SGP/SGP4

EPOCH          = 2026-03-15T14:00:01.999872
MEAN_MOTION    = 15.99165305
ECCENTRICITY   = .00016001
INCLINATION    = 97.2804
RA_OF_ASC_NODE = 34.9167
ARG_OF_PERICENTER = 114.1208
MEAN_ANOMALY   = 168.2427

EPHEMERIS_TYPE = 0
CLASSIFICATION_TYPE = U
NORAD_CAT_ID   = 68114
ELEMENT_SET_NO = 999
REV_AT_EPOCH   = 234
BSTAR          = -.38976232E-2
MEAN_MOTION_DOT = -.1866296E-1
MEAN_MOTION_DDOT = .10346529E-2

CCSDS_OMM_VERS = 2.0
CREATION_DATE  = 
ORIGINATOR     = 

OBJECT_NAME    = STARLINK-36392
OBJECT_ID      = 2026-044Q
CENTER_NAME    = EARTH
REF_FRAME      = TEME
TIME_SYSTEM    = UTC
MEAN_ELEMENT_THEORY = SGP/SGP4

EPOCH          = 2026-03-15T14:00:01.999872
MEAN_MOTION    = 15.99435748
ECCENTRICITY   = .00015663
INCLINATION    = 97.2805
RA_OF_ASC_NODE = 34.9192
ARG_OF_PERICENTER = 117.2687
MEAN_ANOMALY   = 169.8838

EPHEMERIS_TYPE = 0
CLASSIFICATION_TYPE = U
NORAD_CAT_ID   = 68115
ELEMENT_SET_NO = 999
REV_AT_EPOCH   = 234
BSTAR          = -.38446538E-2
MEAN_MOTION_DOT = -.1868979E-1
MEAN_MOTION_DDOT = .10406957E-2

CCSDS_OMM_VERS = 2.0
CREATION_DATE  = 
ORIGINATOR     = 

OBJECT_NAME    = STARLINK-36805
OBJECT_ID      = 2026-044R
CENTER_NAME    = EARTH
REF_FRAME      = TEME
TIME_SYSTEM    = UTC
MEAN_ELEMENT_THEORY = SGP/SGP4

EPOCH          = 2026-03-15T14:00:01.999872
MEAN_MOTION    = 15.99589696
ECCENTRICITY   = .00015408
INCLINATION    = 97.2803
RA_OF_ASC_NODE = 34.9204
ARG_OF_PERICENTER = 112.7895
MEAN_ANOMALY   = 177.3305

EPHEMERIS_TYPE = 0
CLASSIFICATION_TYPE = U
NORAD_CAT_ID   = 68116
ELEMENT_SET_NO = 999
REV_AT_EPOCH   = 234
BSTAR          = -.38412412E-2
MEAN_MOTION_DOT = -.1883355E-1
MEAN_MOTION_DDOT = .1057749E-2

CCSDS_OMM_VERS = 2.0
CREATION_DATE  = 
ORIGINATOR     = 

OBJECT_NAME    = STARLINK-36844
OBJECT_ID      = 2026-044S
CENTER_NAME    = EARTH
REF_FRAME      = TEME
TIME_SYSTEM    = UTC
MEAN_ELEMENT_THEORY = SGP/SGP4

EPOCH          = 2026-03-15T14:00:01.999872
MEAN_MOTION    = 15.99719525
ECCENTRICITY   = .00014469
INCLINATION    = 97.2800
RA_OF_ASC_NODE = 34.9212
ARG_OF_PERICENTER = 110.2614
MEAN_ANOMALY   = 182.0577

EPHEMERIS_TYPE = 0
CLASSIFICATION_TYPE = U
NORAD_CAT_ID   = 68117
ELEMENT_SET_NO = 999
REV_AT_EPOCH   = 229
BSTAR          = -.38057877E-2
MEAN_MOTION_DOT = -.1879659E-1
MEAN_MOTION_DDOT = .10554205E-2

CCSDS_OMM_VERS = 2.0
CREATION_DATE  = 
ORIGINATOR     = 

OBJECT_NAME    = STARLINK-36789
OBJECT_ID      = 2026-044T
CENTER_NAME    = EARTH
REF_FRAME      = TEME
TIME_SYSTEM    = UTC
MEAN_ELEMENT_THEORY = SGP/SGP4

EPOCH          = 2026-03-15T14:00:01.999872
MEAN_MOTION    = 15.99864380
ECCENTRICITY   = .00013804
INCLINATION    = 97.2802
RA_OF_ASC_NODE = 34.9234
ARG_OF_PERICENTER = 106.2369
MEAN_ANOMALY   = 190.9519

EPHEMERIS_TYPE = 0
CLASSIFICATION_TYPE = U
NORAD_CAT_ID   = 68118
ELEMENT_SET_NO = 999
REV_AT_EPOCH   = 229
BSTAR          = -.38207172E-2
MEAN_MOTION_DOT = -.1902219E-1
MEAN_MOTION_DDOT = .10813307E-2

CCSDS_OMM_VERS = 2.0
CREATION_DATE  = 
ORIGINATOR     = 

OBJECT_NAME    = STARLINK-36850
OBJECT_ID      = 2026-044U
CENTER_NAME    = EARTH
REF_FRAME      = TEME
TIME_SYSTEM    = UTC
MEAN_ELEMENT_THEORY = SGP/SGP4

EPOCH          = 2026-03-15T14:00:01.999872
MEAN_MOTION    = 15.99997871
ECCENTRICITY   = .00014846
INCLINATION    = 97.2801
RA_OF_ASC_NODE = 34.9243
ARG_OF_PERICENTER = 113.6222
MEAN_ANOMALY   = 185.8449

EPHEMERIS_TYPE = 0
CLASSIFICATION_TYPE = U
NORAD_CAT_ID   = 68119
ELEMENT_SET_NO = 999
REV_AT_EPOCH   = 229
BSTAR          = -.37898463E-2
MEAN_MOTION_DOT = -.1901162E-1
MEAN_MOTION_DDOT = .10818805E-2

CCSDS_OMM_VERS = 2.0
CREATION_DATE  = 
ORIGINATOR     = 

OBJECT_NAME    = STARLINK-36868
OBJECT_ID      = 2026-044V
CENTER_NAME    = EARTH
REF_FRAME      = TEME
TIME_SYSTEM    = UTC
MEAN_ELEMENT_THEORY = SGP/SGP4

EPOCH          = 2026-03-15T14:00:01.999872
MEAN_MOTION    = 16.00153527
ECCENTRICITY   = .00015493
INCLINATION    = 97.2797
RA_OF_ASC_NODE = 34.9258
ARG_OF_PERICENTER = 107.3684
MEAN_ANOMALY   = 194.9853

EPHEMERIS_TYPE = 0
CLASSIFICATION_TYPE = U
NORAD_CAT_ID   = 68120
ELEMENT_SET_NO = 999
REV_AT_EPOCH   = 229
BSTAR          = -.37870802E-2
MEAN_MOTION_DOT = -.191642E-1
MEAN_MOTION_DDOT = .11004E-2

CCSDS_OMM_VERS = 2.0
CREATION_DATE  = 
ORIGINATOR     = 

OBJECT_NAME    = STARLINK-36855
OBJECT_ID      = 2026-044W
CENTER_NAME    = EARTH
REF_FRAME      = TEME
TIME_SYSTEM    = UTC
MEAN_ELEMENT_THEORY = SGP/SGP4

EPOCH          = 2026-03-15T14:00:01.999872
MEAN_MOTION    = 16.00294790
ECCENTRICITY   = .00016162
INCLINATION    = 97.2797
RA_OF_ASC_NODE = 34.9269
ARG_OF_PERICENTER = 115.1117
MEAN_ANOMALY   = 189.8690

EPHEMERIS_TYPE = 0
CLASSIFICATION_TYPE = U
NORAD_CAT_ID   = 68121
ELEMENT_SET_NO = 999
REV_AT_EPOCH   = 229
BSTAR          = -.37521245E-2
MEAN_MOTION_DOT = -.1914037E-1
MEAN_MOTION_DDOT = .1099634E-2

